STARLINK-4561           
1 53563U 22101AN  22242.91667824 -.00442269  00000+0 -32683-2 0  9995
2 53563  53.2172  99.6495 0001457  63.2254 125.2279 15.73531059  1306
STARLINK-4577           
1 53564U 22101AP  22242.91667824 -.00629510  00000+0 -47254-2 0  9992
2 53564  53.2172  99.6439 0001193  70.1372 121.1938 15.73688752  1300
STARLINK-4575           
1 53565U 22101AQ  22242.91667824 -.00473022  00000+0 -35041-2 0  9999
2 53565  53.2172  99.6471 0001328  81.2832 108.3395 15.73560869  1303
STARLINK-4576           
1 53566U 22101AR  22242.91667824 -.00538993  00000+0 -40128-2 0  9991
2 53566  53.2172  99.6417 0001204  55.1844 137.3632 15.73628799  1303
STARLINK-4585           
1 53567U 22101AS  22242.91667824 -.00624437  00000+0 -46864-2 0  9994
2 53567  53.2173  99.6450 0000892  54.6095 136.1328 15.73681268  1305
STARLINK-4583           
1 53568U 22101AT  22242.91667824 -.00576558  00000+0 -43035-2 0  9992
2 53568  53.2172  99.6381 0001524  57.6596 136.6395 15.73671128  1303
STARLINK-4582           
1 53569U 22101AU  22242.91667824 -.00551327  00000+0 -41101-2 0  9992
2 53569  53.2172  99.6424 0001075  58.7544 133.1999 15.73632902  1307
STARLINK-4550           
1 53570U 22101AV  22242.91667824 -.00562890  00000+0 -41978-2 0  9993
2 53570  53.2172  99.6394 0001371  60.4527 133.2651 15.73654717  1309
STARLINK-4584           
1 53571U 22101AW  22242.91667824 -.00569226  00000+0 -42484-2 0  9997
2 53571  53.2172  99.6400 0001251  56.8884 136.2380 15.73654770  1301
STARLINK-4555           
1 53572U 22101AX  22242.91667824 -.00687927  00000+0 -51810-2 0  9990
2 53572  53.2173  99.6348 0001376  63.5202 132.4957 15.73772334  1306
STARLINK-4547           
1 53573U 22101AY  22242.91667824 -.00590919  00000+0 -44152-2 0  9996
2 53573  53.2172  99.6365 0001503  65.0062 129.8749 15.73687262  1302
STARLINK-4559           
1 53574U 22101AZ  22242.91667824 -.00639208  00000+0 -47915-2 0  9992
2 53574  53.2173  99.6326 0001173  57.3696 139.8387 15.73747875  1307
STARLINK-4551           
1 53575U 22101BA  22242.91667824 -.00707982  00000+0 -53431-2 0  9998
2 53575  53.2174  99.6358 0001295  63.2067 132.2153 15.73780585  1300
STARLINK-4581           
1 53576U 22101BB  22242.91667824 -.00663594  00000+0 -49832-2 0  9999
2 53576  53.2172  99.6312 0001197  53.1652 144.6179 15.73773730  1307
STARLINK-4553           
1 53577U 22101BC  22242.91667824 -.00749618  00000+0 -56746-2 0  9994
2 53577  53.2175  99.6327 0001218  62.0981 134.4783 15.73826098  1309
STARLINK-4556           
1 53578U 22101BD  22242.91667824 -.00671711  00000+0 -50461-2 0  9991
2 53578  53.2173  99.6302 0001382  47.9073 150.4592 15.73785873  1308
STARLINK-4580           
1 53579U 22101BE  22242.91667824 -.00683808  00000+0 -51415-2 0  9992
2 53579  53.2173  99.6284 0001264  57.2269 141.7229 15.73799803  1306
FALCON 9 DEB            
1 53580U 22101BF  22242.85700552  .00676019  11483-4  70719-3 0  9998
2 53580  53.2178  98.9020 0057330  83.9138 276.8425 16.06206277  1784
FALCON 9 DEB            
1 53581U 22101BG  22242.85334387  .00673710  23924-3  70445-3 0  9991
2 53581  53.2152  98.8717 0053077  85.4361 275.2734 16.06754951  1781
FALCON 9 DEB            
1 53582U 22101BH  22242.59679861  .01231134  11549-4  11473-2 0  9999
2 53582  53.2152 100.1074 0049316  78.0876 282.5683 16.08728620  1741
FALCON 9 DEB            
1 53583U 22101BJ  22242.72110840  .00683472  11523-4  66715-3 0  9999
2 53583  53.2164  99.4595 0051529  80.3099 280.3751 16.07860992  1767
CHUANGXIN 16 (CX-16)    
1 53586U 22102A   22242.85361423  .00000618  00000+0  46771-4 0  9991
2 53586  29.0016 318.1942 0004558 330.1453  29.8721 14.91642797  1163
BEIJING-3B              
1 53587U 22103A   22242.96444122  .00000731  00000+0  86869-4 0  9991
2 53587  97.9419 311.5858 0013662 240.7963 119.1879 14.87448628  1020
NOAA 1 [-]              
1 04793U 70106A   22242.76847965 -.00000031  00000+0  80720-4 0  9996
2 04793 101.5510 304.6899 0031784 176.9750 297.2911 12.54007146366900
NOAA 2 (ITOS-D) [-]     
1 06235U 72082A   22242.86655088 -.00000031  00000+0  92705-4 0  9994
2 06235 101.9593 225.5790 0003751 297.4954 123.3993 12.53150822281293
NOAA 3 [-]              
1 06920U 73086A   22242.91035493 -.00000039  00000+0  48396-4 0  9993
2 06920 102.2133 224.6809 0006490 149.9322 265.5891 12.40347888210027
NOAA 4 [-]              
1 07529U 74089A   22242.84488118 -.00000037  00000+0  53425-4 0  9998
2 07529 101.9196 222.7157 0008906 324.6248  93.9217 12.53159714185867
NOAA 5 [-]              
1 09057U 76077A   22242.91649906 -.00000015  00000+0  23427-3 0  9991
2 09057 102.1048 210.1285 0010153   4.1549  57.6212 12.37773874 82957
TIROS N [-]             
1 11060U 78096A   22242.76849224  .00000055  00000+0  47476-4 0  9993
2 11060  98.6294 294.5203 0009514 291.5582  68.4580 14.18408020482142
NOAA 6 [-]              
1 11416U 79057A   22242.79440300  .00000099  00000+0  51773-4 0  9994
2 11416  98.6648 253.7665 0011143  44.4769 315.7308 14.33789244252173
NOAA 7 [-]              
1 12553U 81059A   22242.70741691 -.00000017  00000+0  14424-4 0  9993
2 12553  98.9932 288.0245 0010479 264.1285  95.8694 14.17341248128317
NOAA 8 [-]              
1 13923U 83022A   22242.86596558  .00000039  00000+0  33273-4 0  9990
2 13923  98.6919 233.1359 0015065 356.4966   3.6108 14.28826064 53034
NOAA 9 [-]              
1 15427U 84123A   22242.91527966  .00000040  00000+0  43538-4 0  9994
2 15427  99.0522 216.4921 0014194 317.8796  96.3738 14.16218035947156
NOAA 10 [-]             
1 16969U 86073A   22242.92187208  .00000030  00000+0  29396-4 0  9999
2 16969  98.5737 227.7239 0013411  93.7296 319.6103 14.28216082871463
NOAA 11 [-]             
1 19531U 88089A   22242.85567940  .00000007  00000+0  24665-4 0  9991
2 19531  98.4300 227.8684 0010540 330.0139  30.0431 14.15319337751349
NOAA 12 [-]             
1 21263U 91032A   22242.86847952  .00000018  00000+0  25388-4 0  9998
2 21263  98.5176 240.6145 0014695 119.2436 241.0216 14.26006586627330
NOAA 13 [-]             
1 22739U 93050A   22242.87696511  .00000046  00000+0  46739-4 0  9997
2 22739  98.5113 218.9885 0010410 125.8541 234.3600 14.12857530497560
NOAA 14 [-]             
1 23455U 94089A   22242.84360387 -.00000001  00000+0  20901-4 0  9997
2 23455  98.4453 265.5154 0010632 108.6476 251.5853 14.14206302427225
NOAA 15 [B]             
1 25338U 98030A   22242.85811175  .00000082  00000+0  52464-4 0  9993
2 25338  98.6405 271.4067 0011528  82.2853 277.9636 14.26165582263626
NOAA 16 [-]             
1 26536U 00055A   22242.80207464  .00000019  00000+0  32817-4 0  9999
2 26536  98.6303 299.1172 0009665 318.0811  41.9621 14.13340131427852
NOAA 17 [-]             
1 27453U 02032A   22242.85409867  .00000037  00000+0  34622-4 0  9997
2 27453  98.6752 187.2606 0012882  58.3310 301.9124 14.25136689 49458
NOAA 18 [B]             
1 28654U 05018A   22242.85365097  .00000131  00000+0  94409-4 0  9998
2 28654  98.9444 313.2149 0015261 119.9279 240.3410 14.12769616890487
NOAA 19 [+]             
1 33591U 09005A   22242.86333192  .00000096  00000+0  76798-4 0  9997
2 33591  99.1432 278.5458 0013517 343.2082  16.8640 14.12603386698696
SUOMI NPP [+]           
1 37849U 11061A   22242.84403993  .00000026  00000+0  32940-4 0  9991
2 37849  98.7343 180.3725 0001241  82.9769 339.9188 14.19540230561756
NOAA 20 [+]             
1 43013U 17073A   22242.86623108  .00000024  00000+0  31978-4 0  9992
2 43013  98.7183 180.2650 0000971 112.6039 247.5240 14.19540315247785
CELESTIS-02             
1 25160U 98007D   22242.76500295 -.00000065  00000+0  28968-4 0  9992
2 25160 107.9913  56.3848 0063172 341.4205  28.3407 14.21641628273425
CELESTIS-03             
1 26034U 99070C   22242.83508371  .00010802  00000+0  49234-3 0  9992
2 26034  98.3119 256.3111 0008354 223.6903 136.3669 15.20839875232371
O3B FM5                 
1 39188U 13031A   22242.63658357 -.00000015  00000+0  00000+0 0  9997
2 39188   0.0585  20.1062 0002578 141.8116 198.0931  5.00115274167677
O3B FM4                 
1 39189U 13031B   22242.89251931 -.00000015  00000+0  00000+0 0  9993
2 39189   0.0549 351.6555 0002538 170.0633 198.2921  5.00115799167696
O3B FM2                 
1 39190U 13031C   22242.78407745 -.00000015  00000+0  00000+0 0  9999
2 39190   0.0567 346.7955 0002576 174.1166 199.0993  5.00116830167746
O3B PFM                 
1 39191U 13031D   22242.21066535 -.00000016  00000+0  00000+0 0  9997
2 39191   0.0543  11.8866 0002646 146.8561 201.2698  5.00115671167284
O3B FM3                 
1 40079U 14038A   22242.66520684 -.00000015  00000+0  00000+0 0  9990
2 40079   0.0553 359.7017 0004986 150.5740 209.7543  5.00115290148765
O3B FM7                 
1 40080U 14038B   22242.61127839 -.00000015  00000+0  00000+0 0  9992
2 40080   0.0584 356.9170 0001370 205.4919 157.5868  5.00115453148516
O3B FM6                 
1 40081U 14038C   22242.63765378 -.00000015  00000+0  00000+0 0  9991
2 40081   0.0543 358.9740 0002683 160.8600 200.1782  5.00115382148450
O3B FM8                 
1 40082U 14038D   22242.89148115 -.00000015  00000+0  00000+0 0  9994
2 40082   0.0533 355.6803 0002660 161.2369 203.0965  5.00115667148581
O3B FM10                
1 40348U 14083A   22242.71762905 -.00000015  00000+0  00000+0 0  9999
2 40348   0.0505   8.0017 0002615 151.2001 200.8104  5.00115104140536
O3B FM11                
1 40349U 14083B   22239.93262379 -.00000019  00000+0  00000+0 0  9994
2 40349   0.0551   8.7059 0002359 163.2444 188.0537  5.00115403140416
O3B FM12                
1 40350U 14083C   22242.75829605 -.00000015  00000+0  00000+0 0  9997
2 40350   0.0547   7.6279 0002721 155.2330 197.1499  5.00115261140569
O3B FM9                 
1 40351U 14083D   22242.58532997 -.00000015  00000+0  00000+0 0  9994
2 40351   0.0563   8.9552 0002586 151.1241 199.9324  5.00115783140703
